[{"OBJECT_NAME":"STARLINK-30575","OBJECT_ID":"2023-158B","EPOCH":"2026-03-08T16:00:00.999936","MEAN_MOTION":15.27562199,"ECCENTRICITY":0.00017382,"INCLINATION":43.0037,"RA_OF_ASC_NODE":33.1816,"ARG_OF_PERICENTER":277.6806,"MEAN_ANOMALY":288.0882,"EPHEMERIS_TYPE":0,"CLASSIFICATION_TYPE":"U","NORAD_CAT_ID":58052,"ELEMENT_SET_NO":999,"REV_AT_EPOCH":574,"BSTAR":0.00025284576,"MEAN_MOTION_DOT":6.698e-5,"MEAN_MOTION_DDOT":0},{"OBJECT_NAME":"FLOCK 4G-27","OBJECT_ID":"2025-009AJ","EPOCH":"2026-03-09T18:05:51.175392","MEAN_MOTION":15.27199247,"ECCENTRICITY":7.564e-5,"INCLINATION":97.3976,"RA_OF_ASC_NODE":150.8631,"ARG_OF_PERICENTER":322.4974,"MEAN_ANOMALY":37.6212,"EPHEMERIS_TYPE":0,"CLASSIFICATION_TYPE":"U","NORAD_CAT_ID":62641,"ELEMENT_SET_NO":999,"REV_AT_EPOCH":6371,"BSTAR":0.00047455305,"MEAN_MOTION_DOT":0.00012587,"MEAN_MOTION_DDOT":0}]
